[
    {
        "Altitude(m)": 570781.2956491669,
        "Argument of Periapsis(deg)": 0.013245982221427002,
        "Eccentricity": 0.0,
        "Inclination(deg)": 53.0,
        "Latitude(deg)": -50.43246263018741,
        "Longitude(deg)": -161.66536589869148,
        "Mean Anomaly(deg)": 285.63778573515515,
        "RAAN(deg)": 4.9802867370560335,
        "Satellite Name": "Starlink Shell 1 38",
        "Satellite Number": 38,
        "Semi-Major Axis(m)": 6931778.249405717,
        "Time(s)": 380
    },
    {
        "Altitude(m)": 570696.3785778405,
        "Argument of Periapsis(deg)": 0.013594560700938237,
        "Eccentricity": 0.0,
        "Inclination(deg)": 53.0,
        "Latitude(deg)": -50.2185227886425,
        "Longitude(deg)": -160.78954043393347,
        "Mean Anomaly(deg)": 286.2646169387119,
        "RAAN(deg)": 4.979767966978561,
        "Satellite Name": "Starlink Shell 1 38",
        "Satellite Number": 38,
        "Semi-Major Axis(m)": 6931778.249405717,
        "Time(s)": 390
    },
    {
        "Altitude(m)": 570608.4374245317,
        "Argument of Periapsis(deg)": 0.013943139180449475,
        "Eccentricity": 0.0,
        "Inclination(deg)": 53.0,
        "Latitude(deg)": -49.99740193293237,
        "Longitude(deg)": -159.9220015848509,
        "Mean Anomaly(deg)": 286.8914481422686,
        "RAAN(deg)": 4.979249196901089,
        "Satellite Name": "Starlink Shell 1 38",
        "Satellite Number": 38,
        "Semi-Major Axis(m)": 6931778.249405717,
        "Time(s)": 400
    },
    {
        "Altitude(m)": 570517.5071325434,
        "Argument of Periapsis(deg)": 0.014291717659960712,
        "Eccentricity": 0.0,
        "Inclination(deg)": 53.0,
        "Latitude(deg)": -49.769219888131055,
        "Longitude(deg)": -159.06287539788642,
        "Mean Anomaly(deg)": 287.5182793458253,
        "RAAN(deg)": 4.978730426823615,
        "Satellite Name": "Starlink Shell 1 38",
        "Satellite Number": 38,
        "Semi-Major Axis(m)": 6931778.249405717,
        "Time(s)": 410
    },
    {
        "Altitude(m)": 570423.6238215968,
        "Argument of Periapsis(deg)": 0.014640296139471948,
        "Eccentricity": 0.0,
        "Inclination(deg)": 53.0,
        "Latitude(deg)": -49.5340975888226,
        "Longitude(deg)": -158.212273426539,
        "Mean Anomaly(deg)": 288.1451105493821,
        "RAAN(deg)": 4.978211656746142,
        "Satellite Name": "Starlink Shell 1 38",
        "Satellite Number": 38,
        "Semi-Major Axis(m)": 6931778.249405717,
        "Time(s)": 420
    },
    {
        "Altitude(m)": 570326.8247721187,
        "Argument of Periapsis(deg)": 0.014988874618983185,
        "Eccentricity": 0.0,
        "Inclination(deg)": 53.0,
        "Latitude(deg)": -49.2921568422784,
        "Longitude(deg)": -157.3702926054502,
        "Mean Anomaly(deg)": 288.7719417529388,
        "RAAN(deg)": 4.977692886668669,
        "Satellite Name": "Starlink Shell 1 38",
        "Satellite Number": 38,
        "Semi-Major Axis(m)": 6931778.249405717,
        "Time(s)": 430
    },
    {
        "Altitude(m)": 570227.148408992,
        "Argument of Periapsis(deg)": 0.015337453098494424,
        "Eccentricity": 0.0,
        "Inclination(deg)": 53.0,
        "Latitude(deg)": -49.043520101123796,
        "Longitude(deg)": -156.53701516165185,
        "Mean Anomaly(deg)": 289.39877295649546,
        "RAAN(deg)": 4.977174116591197,
        "Satellite Name": "Starlink Shell 1 38",
        "Satellite Number": 38,
        "Semi-Major Axis(m)": 6931778.249405717,
        "Time(s)": 440
    },
    {
        "Altitude(m)": 570124.6342848423,
        "Argument of Periapsis(deg)": 0.01568603157800566,
        "Eccentricity": 0.0,
        "Inclination(deg)": 53.0,
        "Latitude(deg)": -48.78831024598783,
        "Longitude(deg)": -155.71251007086218,
        "Mean Anomaly(deg)": 290.0256041600522,
        "RAAN(deg)": 4.976655346513724,
        "Satellite Name": "Starlink Shell 1 38",
        "Satellite Number": 38,
        "Semi-Major Axis(m)": 6931778.249405717,
        "Time(s)": 450
    },
    {
        "Altitude(m)": 570019.323062791,
        "Argument of Periapsis(deg)": 0.0160346100575169,
        "Eccentricity": 0.0,
        "Inclination(deg)": 53.0,
        "Latitude(deg)": -48.526650378533304,
        "Longitude(deg)": -154.89683302822826,
        "Mean Anomaly(deg)": 290.6524353636089,
        "RAAN(deg)": 4.976136576436252,
        "Satellite Name": "Starlink Shell 1 38",
        "Satellite Number": 38,
        "Semi-Major Axis(m)": 6931778.249405717,
        "Time(s)": 460
    },
    {
        "Altitude(m)": 569911.256498746,
        "Argument of Periapsis(deg)": 0.016383188537028134,
        "Eccentricity": 0.0,
        "Inclination(deg)": 53.0,
        "Latitude(deg)": -48.25866362515591,
        "Longitude(deg)": -154.09002644170414,
        "Mean Anomaly(deg)": 291.2792665671656,
        "RAAN(deg)": 4.975617806358779,
        "Satellite Name": "Starlink Shell 1 38",
        "Satellite Number": 38,
        "Semi-Major Axis(m)": 6931778.249405717,
        "Time(s)": 470
    },
    {
        "Altitude(m)": 569800.477423147,
        "Argument of Periapsis(deg)": 0.01673176701653937,
        "Eccentricity": 0.0,
        "Inclination(deg)": 53.0,
        "Latitude(deg)": -47.984472951548135,
        "Longitude(deg)": -153.29212095645934,
        "Mean Anomaly(deg)": 291.9060977707223,
        "RAAN(deg)": 4.975099036281305,
        "Satellite Name": "Starlink Shell 1 38",
        "Satellite Number": 38,
        "Semi-Major Axis(m)": 6931778.249405717,
        "Time(s)": 480
    },
    {
        "Altitude(m)": 569687.0297223203,
        "Argument of Periapsis(deg)": 0.017080345496050607,
        "Eccentricity": 0.0,
        "Inclination(deg)": 53.0,
        "Latitude(deg)": -47.704200988244196,
        "Longitude(deg)": -152.50313548032432,
        "Mean Anomaly(deg)": 292.53292897427906,
        "RAAN(deg)": 4.974580266203832,
        "Satellite Name": "Starlink Shell 1 38",
        "Satellite Number": 38,
        "Semi-Major Axis(m)": 6931778.249405717,
        "Time(s)": 490
    },
    {
        "Altitude(m)": 569570.9583192775,
        "Argument of Periapsis(deg)": 0.017428923975561842,
        "Eccentricity": 0.0,
        "Inclination(deg)": 53.0,
        "Latitude(deg)": -47.41796986717408,
        "Longitude(deg)": -151.72307721915598,
        "Mean Anomaly(deg)": 293.1597601778358,
        "RAAN(deg)": 4.97406149612636,
        "Satellite Name": "Starlink Shell 1 38",
        "Satellite Number": 38,
        "Semi-Major Axis(m)": 6931778.249405717,
        "Time(s)": 500
    },
    {
        "Altitude(m)": 569452.309154115,
        "Argument of Periapsis(deg)": 0.01777750245507308,
        "Eccentricity": 0.0,
        "Inclination(deg)": 53.0,
        "Latitude(deg)": -47.125901069181765,
        "Longitude(deg)": -150.95194323127618,
        "Mean Anomaly(deg)": 293.78659138139244,
        "RAAN(deg)": 4.973542726048887,
        "Satellite Name": "Starlink Shell 1 38",
        "Satellite Number": 38,
        "Semi-Major Axis(m)": 6931778.249405717,
        "Time(s)": 510
    },
    {
        "Altitude(m)": 569331.1291639062,
        "Argument of Periapsis(deg)": 0.018126080934584315,
        "Eccentricity": 0.0,
        "Inclination(deg)": 53.0,
        "Latitude(deg)": -46.8281152824039,
        "Longitude(deg)": -150.18972047179503,
        "Mean Anomaly(deg)": 294.4134225849492,
        "RAAN(deg)": 4.9730239559714144,
        "Satellite Name": "Starlink Shell 1 38",
        "Satellite Number": 38,
        "Semi-Major Axis(m)": 6931778.249405717,
        "Time(s)": 520
    },
    {
        "Altitude(m)": 569207.4662621835,
        "Argument of Periapsis(deg)": 0.018474659414095554,
        "Eccentricity": 0.0,
        "Inclination(deg)": 53.0,
        "Latitude(deg)": -46.524732271340234,
        "Longitude(deg)": -149.43638583654234,
        "Mean Anomaly(deg)": 295.0402537885059,
        "RAAN(deg)": 4.972505185893941,
        "Satellite Name": "Starlink Shell 1 38",
        "Satellite Number": 38,
        "Semi-Major Axis(m)": 6931778.249405717,
        "Time(s)": 530
    },
    {
        "Altitude(m)": 569081.3693179676,
        "Argument of Periapsis(deg)": 0.018823237893606792,
        "Eccentricity": 0.0,
        "Inclination(deg)": 53.0,
        "Latitude(deg)": -46.215870756393336,
        "Longitude(deg)": -148.6919077156161,
        "Mean Anomaly(deg)": 295.66708499206266,
        "RAAN(deg)": 4.971986415816469,
        "Satellite Name": "Starlink Shell 1 38",
        "Satellite Number": 38,
        "Semi-Major Axis(m)": 6931778.249405717,
        "Time(s)": 540
    },
    {
        "Altitude(m)": 568952.8881343604,
        "Argument of Periapsis(deg)": 0.019171816373118027,
        "Eccentricity": 0.0,
        "Inclination(deg)": 53.0,
        "Latitude(deg)": -45.901648303619815,
        "Longitude(deg)": -147.95624602822332,
        "Mean Anomaly(deg)": 296.2939161956193,
        "RAAN(deg)": 4.971467645738996,
        "Satellite Name": "Starlink Shell 1 38",
        "Satellite Number": 38,
        "Semi-Major Axis(m)": 6931778.249405717,
        "Time(s)": 550
    },
    {
        "Altitude(m)": 568822.0734267145,
        "Argument of Periapsis(deg)": 0.019520394852629266,
        "Eccentricity": 0.0,
        "Inclination(deg)": 53.0,
        "Latitude(deg)": -45.582181224388584,
        "Longitude(deg)": -147.22935224939195,
        "Mean Anomaly(deg)": 296.9207473991761,
        "RAAN(deg)": 4.970948875661523,
        "Satellite Name": "Starlink Shell 1 38",
        "Satellite Number": 38,
        "Semi-Major Axis(m)": 6931778.249405717,
        "Time(s)": 560
    }
]